AMC-1 (GE-1)            
1 24315U 96054A   23007.25326859  .00000072  00000+0  00000+0 0  9998
2 24315   6.1013  71.4099 0003754 213.9342 141.4717  1.00271679 33713
AMC-3 (GE-3)            
1 24936U 97050A   23007.09334229 -.00000253  00000+0  00000+0 0  9998
2 24936   5.0427  77.5618 0003416 210.5642 139.8534  1.00271216 39827
ASTRA 1G                
1 25071U 97076A   23006.87618913  .00000121  00000+0  00000+0 0  9990
2 25071   6.7097  66.7122 0004149 219.0170 155.2484  1.00272128 91909
ASTRA 2A                
1 25462U 98050A   23007.40600314  .00000077  00000+0  00000+0 0  9993
2 25462   3.9140  83.3853 0003461 203.7501  22.9444  1.00274665 89137
AMC-4 (GE-4)            
1 25954U 99060A   23007.25326859  .00000098  00000+0  00000+0 0  9996
2 25954   2.0350  89.5326 0003238 204.4985 128.7886  1.00272184 30949
NSS-11 (AAP-1)          
1 26554U 00059A   23007.07094090  .00000037  00000+0  00000+0 0  9995
2 26554   0.0129   0.6876 0002819 274.7031  32.5049  1.00271476 28682
AMC-6 (GE-6)            
1 26580U 00067A   23007.25326859  .00000117  00000+0  00000+0 0  9993
2 26580   0.0313 309.2679 0002694 338.7002 130.7460  1.00272364 81296
ASTRA 2D                
1 26638U 00081A   23006.82551307  .00000135  00000+0  00000+0 0  9993
2 26638   7.7226  58.9067 0001770 223.8186 144.2662  1.00274368 40304
AMC-8 (GE-8)            
1 26639U 00081B   23007.11940465  .00000104  00000+0  00000+0 0  9990
2 26639   2.8745  87.6359 0005199 217.2500 263.4428  0.99147399 80720
ASTRA 2C                
1 26853U 01025A   23007.09325514 -.00000251  00000+0  00000+0 0  9990
2 26853   5.0668  77.3728 0003338 214.2523 135.8516  1.00269829 32439
NSS-7                   
1 27414U 02019A   23007.39066209 -.00000151  00000+0  00000+0 0  9993
2 27414   6.3753  69.6171 0002620 217.5940 300.1043  1.00271538 75956
NSS-6                   
1 27603U 02057A   23007.21230200  .00000118  00000+0  00000+0 0  9992
2 27603   2.1261  89.3127 0003912 199.1264  84.9520  1.00271560 73436
AMC-11 (GE-11)          
1 28252U 04017A   23004.93368205 -.00000077  00000+0  00000+0 0  9999
2 28252   0.0444 302.0989 0001810  57.2778 329.8999  1.00546302 68240
AMC-15                  
1 28446U 04041A   23007.35744031 -.00000076  00000+0  00000+0 0  9994
2 28446   0.0276 326.4590 0002751 314.1098 209.7073  1.00272523 66744
NSS-10 (AMC-12)         
1 28526U 05003A   23007.38717550 -.00000241  00000+0  00000+0 0  9995
2 28526   3.2901  85.1758 0003241 196.9331 286.4939  1.00270926 65713
ASTRA 1KR               
1 29055U 06012A   23007.31021741  .00000132  00000+0  00000+0 0  9995
2 29055   0.0479 273.1849 0005257 344.7402 339.5304  1.00270676 61148
AMC-18                  
1 29644U 06054B   23007.37802316 -.00000203  00000+0  00000+0 0  9996
2 29644   0.0185  50.1026 0002948 244.5181 225.1420  1.00271698 58927
ASTRA 1L                
1 31306U 07016A   23007.31021741  .00000132  00000+0  00000+0 0  9992
2 31306   0.0579 315.5741 0005576 330.4328 311.4618  1.00270647 57438
ASTRA 4A (SIRIUS 4)     
1 32299U 07057A   23007.10859618  .00000045  00000+0  00000+0 0  9991
2 32299   0.0147 351.2739 0003092 293.5704 225.4571  1.00272383 39063
AMC-21                  
1 33275U 08038B   23007.19771575  .00000049  00000+0  00000+0 0  9994
2 33275   0.0145   2.1969 0002733 286.7228 123.8427  1.00272693 52889
ASTRA 1M                
1 33436U 08057A   23007.11147262  .00000132  00000+0  00000+0 0  9999
2 33436   0.0140  67.4287 0001992 164.2096 294.1030  1.00269934 33121
CIEL-2                  
1 33453U 08063A   23007.44331263  .00000071  00000+0  00000+0 0  9999
2 33453   0.0136  43.9284 0003342 246.2685 207.2867  1.00269922 51521
NSS-9                   
1 33749U 09008A   23007.44838237  .00000084  00000+0  00000+0 0  9994
2 33749   0.0199 340.6112 0002442 308.1028 162.5055  1.00272855 50962
SES-7 (PROTOSTAR 2)     
1 34941U 09027A   23007.44215973 -.00000332  00000+0  00000+0 0  9993
2 34941   0.0320  70.9667 0002714 212.6418  90.5505  1.00271993 50013
NSS-12                  
1 36032U 09058A   23007.16577313  .00000084  00000+0  00000+0 0  9991
2 36032   0.0176  50.5141 0003149 239.1206 293.4925  1.00271860 48311
SES-1                   
1 36516U 10016A   23007.37444940 -.00000102  00000+0  00000+0 0  9998
2 36516   0.0106  18.9750 0002789 273.7775 207.7110  1.00271629 46538
ASTRA 3B                
1 36581U 10021A   23007.18799355  .00000149  00000+0  00000+0 0  9998
2 36581   0.0409  16.7479 0002937 270.1103 270.7848  1.00271137 46274
SES-3                   
1 37748U 11035A   23007.45194361 -.00000089  00000+0  00000+0 0  9990
2 37748   0.0176  29.2701 0002964 251.3345 245.8319  1.00271651 42090
ASTRA 1N                
1 37775U 11041A   23007.18799355  .00000132  00000+0  00000+0 0  9999
2 37775   0.0473  18.7345 0002713 324.6421 209.9955  1.00273482 31929
SES-2                   
1 37809U 11049A   23007.37723868 -.00000183  00000+0  00000+0 0  9999
2 37809   0.0156 343.1194 0003167 311.2122 221.1412  1.00271455 41390
QUETZSAT 1              
1 37826U 11054A   23007.09238348 -.00000229  00000+0  00000+0 0  9998
2 37826   0.0321 310.1869 0002928 332.7663 139.6892  1.00272788 37275
SES-4                   
1 38087U 12007A   23007.27410413 -.00000156  00000+0  00000+0 0  9991
2 38087   0.0219  49.6429 0002467 249.3231 244.2842  1.00271640 39635
SES-5                   
1 38652U 12036A   23007.10868333  .00000046  00000+0  00000+0 0  9998
2 38652   0.0562 295.7105 0002193 342.7483 232.0445  1.00272454 31889
ASTRA 2F                
1 38778U 12051A   23007.13104983  .00000162  00000+0  00000+0 0  9990
2 38778   0.0776 244.4605 0003858  10.0228 287.2922  1.00271402 28523
SES-6                   
1 39172U 13026A   23007.38647817 -.00000249  00000+0  00000+0 0  9994
2 39172   0.0252 331.6393 0002523 312.0363 281.6282  1.00272111 35115
O3B FM5                 
1 39188U 13031A   23006.96581175 -.00000022  00000+0  00000+0 0  9993
2 39188   0.0656   4.0798 0002907 287.7522  68.1346  5.00115421174141
O3B FM4                 
1 39189U 13031B   23007.02172474 -.00000022  00000+0  00000+0 0  9990
2 39189   0.0386 356.2104 0002824 295.1051  68.6518  5.00115953174150
O3B FM2                 
1 39190U 13031C   23007.11326807 -.00000022  00000+0  00000+0 0  9993
2 39190   0.0343 351.9888 0002809 297.6672  70.3110  5.00115222174220
O3B PFM                 
1 39191U 13031D   23007.13945721 -.00000022  00000+0  00000+0 0  9998
2 39191   0.0565   3.7705 0002752 282.3116  73.8850  5.00115932173785
ASTRA 2E                
1 39285U 13056A   23007.35049663  .00000163  00000+0  00000+0 0  9998
2 39285   0.0541  15.1734 0002514 281.3692 324.7447  1.00271230 33983
SES-8                   
1 39460U 13071A   23007.46230097 -.00000257  00000+0  00000+0 0  9990
2 39460   0.0502 243.3224 0000990  59.9972  64.8592  1.00272547 33277
ASTRA 5B                
1 39617U 14011B   23007.13104983  .00000167  00000+0  00000+0 0  9996
2 39617   0.0391 340.2664 0004041 308.7900 256.0489  1.00267940 32066
O3B FM3                 
1 40079U 14038A   23006.99432806 -.00000022  00000+0  00000+0 0  9991
2 40079   0.0461 358.6171 0004229 254.3878 106.9462  5.00116791150147
O3B FM7                 
1 40080U 14038B   23006.94047482 -.00000022  00000+0  00000+0 0  9990
2 40080   0.0445 353.4055 0003119 329.2190  37.3512  5.00115635154975
O3B FM6                 
1 40081U 14038C   23006.96688297 -.00000022  00000+0  00000+0 0  9998
2 40081   0.0452 359.3745 0002677 284.2135  76.3796  5.00115446154935
O3B FM8                 
1 40082U 14038D   23007.02072934 -.00000022  00000+0  00000+0 0  9992
2 40082   0.0420 359.5340 0002667 284.7900  75.6438  5.00115812155054
O3B FM10                
1 40348U 14083A   23006.84701413 -.00000022  00000+0  00000+0 0  9997
2 40348   0.0520   6.3033 0002731 280.0225  73.6416  5.00115225146992
O3B FM11                
1 40349U 14083B   23006.66052882 -.00000022  00000+0  00000+0 0  9997
2 40349   0.0541   1.7034 0003114 296.9443  61.3184  5.00115474147005
O3B FM12                
1 40350U 14083C   23006.68776214 -.00000022  00000+0  00000+0 0  9993
2 40350   0.0531   1.9875 0002942 285.4638  72.5140  5.00115371147011
O3B FM9                 
1 40351U 14083D   23006.71446458 -.00000022  00000+0  00000+0 0  9992
2 40351   0.0549   0.8381 0002761 286.6733  72.4559  5.00116174147160
ASTRA 2G                
1 40364U 14089A   23007.13104983  .00000162  00000+0  00000+0 0  9997
2 40364   0.0379 344.1594 0001847  22.3090 175.3508  1.00273621 29365
SES-9                   
1 41380U 16013A   23007.23868650 -.00000333  00000+0  00000+0 0  9995
2 41380   0.0312 298.7528 0000495  47.6449 314.3639  1.00270863 24830
SES-10                  
1 42432U 17017A   23007.30396550 -.00000260  00000+0  00000+0 0  9991
2 42432   0.0222  61.2376 0003078 225.2227 222.6618  1.00271226 21122
SES-15                  
1 42709U 17026A   23007.44159420  .00000073  00000+0  00000+0 0  9997
2 42709   0.0172   4.3401 0000571 278.9300 213.2788  1.00267756 21589
SES-11 (ECHOSTAR 105)   
1 42967U 17063A   23007.18660419 -.00000076  00000+0  00000+0 0  9994
2 42967   0.0267 303.9994 0003070 348.0078 136.7039  1.00271810 19113
SES-14                  
1 43175U 18012B   23007.06715932 -.00000266  00000+0  00000+0 0  9990
2 43175   0.0101 347.7306 0001295 297.1319 158.1699  1.00270755 18457
O3B FM15                
1 43231U 18024A   23006.98029253 -.00000022  00000+0  00000+0 0  9990
2 43231   0.0511   9.9933 0003089 276.5844  73.3857  5.00116292 88129
O3B FM16                
1 43232U 18024B   23007.03372171 -.00000022  00000+0  00000+0 0  9998
2 43232   0.0513  14.6815 0003093 272.5969  72.6851  5.00116094 88051
O3B FM14                
1 43233U 18024C   23007.07348827 -.00000022  00000+0  00000+0 0  9994
2 43233   0.0508  16.2665 0003044 274.5518  69.1465  5.00115511 88050
O3B FM13                
1 43234U 18024D   23006.72724498 -.00000022  00000+0  00000+0 0  9998
2 43234   0.0630   7.8437 0003707 280.7624  71.3511  5.00115557 88151
SES-12                  
1 43488U 18049A   23007.12663934 -.00000257  00000+0  00000+0 0  9998
2 43488   0.0140  34.5095 0002724 240.5472 331.9438  1.00270271 16816
O3B FM20                
1 44112U 19020A   23007.10017415 -.00000022  00000+0  00000+0 0  9998
2 44112   0.0512   6.2365 0003424 283.6528  70.0712  5.00115549 68686
O3B FM19                
1 44113U 19020B   23007.12703693 -.00000022  00000+0  00000+0 0  9991
2 44113   0.0710  13.7688 0002750 301.8121  44.3945  5.00115275 68555
O3B FM17                
1 44114U 19020C   23007.00755580 -.00000022  00000+0  00000+0 0  9991
2 44114   0.0344  20.3938 0003200 265.4938  74.0745  5.00115786 68626
O3B FM18                
1 44115U 19020D   23006.95403871 -.00000022  00000+0  00000+0 0  9998
2 44115   0.0517   6.1234 0002969 279.7250  74.1163  5.00115924 68759
SES-17                  
1 49332U 21095A   23007.09430111 -.00000259  00000+0  00000+0 0  9994
2 49332   0.0157  51.5641 0001292 233.0873 148.5924  1.00269717  5234
SES-22                  
1 52933U 22071A   23007.25326859  .00000101  00000+0  00000+0 0  9996
2 52933   0.0229 301.1102 0003098 341.7483 139.8510  1.00271993  1937
SES-20                  
1 53960U 22123A   23007.01540438 -.00000088  00000+0  00000+0 0  9995
2 53960   0.0694 118.5627 0000738 170.1807  80.0005  1.00271860   936
SES-21                  
1 53961U 22123B   23007.25326859  .00000081  00000+0  00000+0 0  9993
2 53961   0.0340  46.7444 0000672 277.1500 102.9127  1.00271649   955
O3B MPOWER-A F1         
1 54755U 22174A   22356.18260191  .00000047  00000+0  00000+0 0  9997
2 54755   9.6319 253.0871 1859317 195.2651 337.7567  7.25479946   387
O3B MPOWER-A F2         
1 54756U 22174B   23006.09920247  .00000048  00000+0  00000+0 0  9997
2 54756   9.6116 231.5843 1870608 237.6616 102.8694  7.26306050  1469
